#dP2019  5 23  0  0  0.00000000      96 __u+U IGS08 FIT  IAC
## 2054 345600.00000000   900.00000000 58626 0.0000000000000
+   96   C01C02C03C04C05C06C07C08C09C10C11C12C13C14C16E01E02
+        E03E04E05E07E08E09E11E12E13E14E15E18E19E21E24E25E26
+        E27E30E31E33E36G01G02G03G05G06G07G08G09G10G11G12G13
+        G14G15G16G17G18G19G20G21G22G23G24G25G26G27G28G29G30
+        G31G32J01J02J03R01R02R03R04R05R07R08R09R10R11R13R14
+        R15R16R17R18R19R20R21R22R23R24R26  0  0  0  0  0  0
++        13 13 13 13 13  8  8  8  0  8  7  7  8  7  8  4  4
++         5  4  4  5  4  5  5  5  4  4  5  4  4  4  5  5  5
++         4  4  4  4  5  5  3  3  3  4  3  3  3  3  3  3  3
++         3  3  3  3  3  3  3  3  3  3  3  3  3  3  3  3  3
++         3  3  8  9  8  5  5  5  5  5  5  5  5  5  5  6  5
++         5  5  5  5  6  6  5  5  5  6  8  0  0  0  0  0  0
%c M  cc GPS ccc cccc cccc cccc cccc ccccc ccccc ccccc ccccc
%c cc cc ccc ccc cccc cccc cccc cccc ccccc ccccc ccccc ccccc
%f  1.2500000  1.025000000  0.00000000000  0.000000000000000
%f  0.0000000  0.000000000  0.00000000000  0.000000000000000
%i    0    0    0    0      0      0      0      0         0
%i    0    0    0    0      0      0      0      0         0
/* INFORMATION & ANALYSIS CENTER (IAC)            FINAL DATA
/* S/V CLOCKS ARE ALIGNED TO GPS & GLONASS TIME RESPECTIVELY
/* USING THE BROADCAST EPHEMERIS                            
/* PCV:IGS14_2045 OL/AL:FES2004  NONE     YN ORB:CoN CLK:CoN
*  2019 05 23 10 45  0.00000000
PC01 -32309.710313  27077.304254   -120.445458    620.203337
PC02   4418.855555  41936.384602    912.124527    142.218622
PC03 -14862.728990  39462.459615    569.686858    380.982778
PC04 -39601.073740  14467.103023    199.150066   -216.984012
PC05  21786.568230  36104.944137    628.000032   -160.678971
PC06 -25549.393473  30536.105201 -14086.127951    882.609170
PC07 -10856.510184  34727.147931 -20774.517292    -31.784406
PC08 -12089.498174  18506.412727  35975.128121    159.988206
PC09      0.000000      0.000000      0.000000 999999.999999
PC10    850.551423  41217.897757  -7655.573664   -777.477879
PC11  14015.277573 -15312.085422 -18627.125231    316.266420
PC12  27265.578871  -1740.609405   5940.034329    693.984506
PC13   4875.545510  25785.425999  33112.003145   -730.574495
PC14  15264.434874 -19847.496636 -12207.296207    600.755810
PC16 -21798.082266  31410.528406 -17924.110770   -808.789466
PE01 -18137.606075 -13007.232408 -19448.701352   -610.663400
PE02  18137.697398  12959.657242  19472.146947     61.514559
PE03  19300.377680   1965.642632 -22351.387809   -169.222003
PE04 -22898.019427  16154.280553   9546.515923   -287.661368
PE05   4347.966346  19110.626560 -22172.264718   -481.506202
PE07  13051.548542 -24990.525773   9047.200454   -193.073738
PE08  22699.289174 -16475.306516  -9469.107704   6351.618075
PE09 -12882.115101  25042.216598  -9079.234656   6431.072713
PE11  -7087.892407  15202.355269  24386.001212   5690.408808
PE12 -25369.627518   5169.383262  14371.854147   6382.498106
PE13   7141.127209 -15121.338579 -24418.021050    387.456867
PE14   8335.004475  12332.181370  17943.019999   -577.499702
PE15  25109.499332  -5472.581882 -14674.308066    909.445270
PE18 -11910.025377 -17190.665805 -25058.542171   -674.809541
PE19 -18135.806192  -3785.671954  23097.158381     -6.245719
PE21 -11506.941659 -27137.643033  -2748.937209   -535.375991
PE24  -1868.426191  25351.820663 -15191.278231   6066.684897
PE25  11466.732622  27153.524602   2683.129487   1795.786526
PE26 -14924.156511 -16191.849873 -19778.861820   4537.351986
PE27   1936.713642 -25163.916412  15466.785652    464.187998
PE30  14174.262383  -8657.783438  24488.350869   4849.256720
PE31 -14210.911307   8422.046918 -24559.303270   -464.991147
PE33 -28429.608981  -7401.421489  -3677.667632   -470.130602
PE36  15048.560016  15940.555762  19888.924961    708.750573
PG01 -22528.907742 -14365.889629  -1203.560584    -23.019860
PG02   6238.633481  18206.469909  18976.640449   -219.930202
PG03 -12685.405201 -14360.259576  18393.338996    187.486478
PG05   2559.233889  26176.234368  -2903.587889      0.826493
PG06  -7953.146517  12621.335159  22017.909016    198.025860
PG07 -23591.574903  -4873.910555 -11445.573226    -29.833989
PG08 -10212.841801 -11285.420359 -21751.068297   -144.619042
PG09 -24053.999866   6549.802045   9139.807749    406.004263
PG10  11504.472932 -17274.342591 -16394.554610     38.240986
PG11 -21999.420747 -10402.552618 -10871.895995   -600.720710
PG12  10618.990468  16530.239405  17738.761685    239.909144
PG13    255.811371  15849.662827 -21413.773239    -62.411166
PG14  14412.091985 -17522.893354  13977.276107    -79.286787
PG15  12812.170951  10367.829840 -21136.719163   -311.397797
PG16   -272.901775 -26032.925401  -4073.447485    -42.263087
PG17 -20707.627097  15303.796310   6728.979390     59.393926
PG18 -17481.786872 -17466.258214 -10401.659912     55.661007
PG19 -16309.530029  16481.891832  12719.295655   -315.586052
PG20  14662.995575  -7928.567201 -20754.987405    524.911709
PG21  21475.575652   -856.755599 -14709.954041   -187.324274
PG22 -11145.496523 -20455.868756  13067.457705   -705.503379
PG23 -19295.988878  -4016.655980  18319.459137   -185.002640
PG24  21583.202167  15114.735381  -4699.066121    -66.444085
PG25  14811.478871   2867.224942  21664.067252   -759.006697
PG26   4612.115091 -25072.984382   7093.537983    208.536644
PG27   2121.426541 -16965.649260 -20346.732672   -138.925028
PG28 -12470.005216  16438.367020 -16175.844605    767.802611
PG29  23110.448410  -1643.827001  12959.585069    194.696787
PG30 -18016.356267   4793.059497 -18962.629264   -109.918837
PG31   7186.809786 -13437.913233  21736.866404     36.215808
PG32  18871.024319 -17027.859730   7548.819633    -75.274937
PJ01 -29746.362127  26937.417194  17940.394443   -300.492226
PJ02 -18612.350285  22075.305745 -26249.565976      0.028871
PJ03 -30014.870537  28971.046992  11612.010345      0.288423
PR01 -12046.563852  22466.061654    616.847018     44.214212
PR02   -277.888971  18182.350831 -17867.847398    369.936622
PR03  10807.493429   2971.114454 -22864.493333     -4.422385
PR04  15494.766905 -14452.729683 -14168.056248    307.327456
PR05  11301.444617 -22779.979074   1892.623267     28.642026
PR07 -11117.143588  -2407.608091  22875.007197    -20.511455
PR08 -15549.365300  13788.677863  14853.752742     17.612441
PR09 -12650.437362 -22142.657692   1511.148994     71.186334
PR10 -16017.979218 -14711.663877 -13421.397958     50.449544
PR11 -11177.926614   2725.626916 -22758.901391    -67.035389
PR13  12025.035429  22227.767893  -3459.530663    -23.977947
PR14  16248.041137  14329.460547  13461.875874     39.222129
PR15  11462.222321  -1809.723926  22732.817629    102.112126
PR16   -175.123741 -17121.381600  18835.515452      9.260264
PR17  22823.060631   4346.681759  10571.158327    229.959473
PR18  24422.412008  -3394.808948  -6396.052498     -5.859884
PR19  13149.121183  -8933.461367 -19949.277515    -32.151146
PR20  -7837.947923  -9940.123239 -22150.219299   -378.977133
PR21 -23105.452880  -4049.021369  -9998.950941    -49.675406
PR22 -23524.709049   4435.991458   8993.791736    -20.517239
PR23  -7577.727318  10114.246876  22148.634944    229.750863
PR24   9815.432348   9519.359627  21501.435545   -180.749166
PR26  -5040.924128 -10192.443877 -22820.664109    -10.891009
EOF
